TEVEL2-1                
1 63217U 25052H   26068.64782323  .00020683  00000+0  70600-3 0  9994
2 63217  97.3991 324.7682 0004767 104.8919 255.2849 15.30341923 54855
STARLINK-36451          
1 67339U 26003F   26067.51845920  .00030584  00000+0  11161-2 0  9995
2 67339  43.0010 233.7783 0001494 268.3388  91.7293 15.27586134  8648
